{
  "type": "FeatureCollection",
  "features": [
    {
      "type": "Feature",
      "properties": {
        "norad_id": 28054,
        "name": "DMSP 5D-3 F16 (USA 172)",
        "group": "weather",
        "lat": NaN,
        "lon": NaN,
        "alt_km": NaN,
        "timestamp": "2025-12-01T02:46:55.348899+00:00",
        "meta": {
          "OBJECT_NAME": "DMSP 5D-3 F16 (USA 172)",
          "OBJECT_ID": "2003-048A",
          "EPOCH": "2025-11-30T20:06:34.476192",
          "MEAN_MOTION": 14.14417219,
          "ECCENTRICITY": 0.0007007,
          "INCLINATION": 99.0056,
          "RA_OF_ASC_NODE": 352.2008,
          "ARG_OF_PERICENTER": 356.8098,
          "MEAN_ANOMALY": 176.1378,
          "EPHEMERIS_TYPE": 0,
          "CLASSIFICATION_TYPE": "U",
          "NORAD_CAT_ID": 28054,
          "ELEMENT_SET_NO": 999,
          "REV_AT_EPOCH": 14144,
          "BSTAR": 9.9176e-05,
          "MEAN_MOTION_DOT": 1.44e-06,
          "MEAN_MOTION_DDOT": 0
        }
      },
      "geometry": {
        "type": "Point",
        "coordinates": [
          NaN,
          NaN
        ]
      }
    },
    {
      "type": "Feature",
      "properties": {
        "norad_id": 28912,
        "name": "METEOSAT-9 (MSG-2)",
        "group": "weather",
        "lat": NaN,
        "lon": NaN,
        "alt_km": NaN,
        "timestamp": "2025-12-01T02:46:55.348944+00:00",
        "meta": {
          "OBJECT_NAME": "METEOSAT-9 (MSG-2)",
          "OBJECT_ID": "2005-049B",
          "EPOCH": "2025-11-30T19:11:54.733920",
          "MEAN_MOTION": 1.00270478,
          "ECCENTRICITY": 0.0003917,
          "INCLINATION": 8.9104,
          "RA_OF_ASC_NODE": 56.0832,
          "ARG_OF_PERICENTER": 183.6616,
          "MEAN_ANOMALY": 163.7686,
          "EPHEMERIS_TYPE": 0,
          "CLASSIFICATION_TYPE": "U",
          "NORAD_CAT_ID": 28912,
          "ELEMENT_SET_NO": 999,
          "REV_AT_EPOCH": 500,
          "BSTAR": 0,
          "MEAN_MOTION_DOT": 1.43e-06,
          "MEAN_MOTION_DDOT": 0
        }
      },
      "geometry": {
        "type": "Point",
        "coordinates": [
          NaN,
          NaN
        ]
      }
    },
    {
      "type": "Feature",
      "properties": {
        "norad_id": 29522,
        "name": "DMSP 5D-3 F17 (USA 191)",
        "group": "weather",
        "lat": NaN,
        "lon": NaN,
        "alt_km": NaN,
        "timestamp": "2025-12-01T02:46:55.348969+00:00",
        "meta": {
          "OBJECT_NAME": "DMSP 5D-3 F17 (USA 191)",
          "OBJECT_ID": "2006-050A",
          "EPOCH": "2025-11-30T19:40:26.025024",
          "MEAN_MOTION": 14.14911278,
          "ECCENTRICITY": 0.0009123,
          "INCLINATION": 98.7396,
          "RA_OF_ASC_NODE": 340.4569,
          "ARG_OF_PERICENTER": 262.0906,
          "MEAN_ANOMALY": 97.9232,
          "EPHEMERIS_TYPE": 0,
          "CLASSIFICATION_TYPE": "U",
          "NORAD_CAT_ID": 29522,
          "ELEMENT_SET_NO": 999,
          "REV_AT_EPOCH": 98436,
          "BSTAR": 0.00012247,
          "MEAN_MOTION_DOT": 1.93e-06,
          "MEAN_MOTION_DDOT": 0
        }
      },
      "geometry": {
        "type": "Point",
        "coordinates": [
          NaN,
          NaN
        ]
      }
    },
    {
      "type": "Feature",
      "properties": {
        "norad_id": 32958,
        "name": "FENGYUN 3A",
        "group": "weather",
        "lat": NaN,
        "lon": NaN,
        "alt_km": NaN,
        "timestamp": "2025-12-01T02:46:55.348991+00:00",
        "meta": {
          "OBJECT_NAME": "FENGYUN 3A",
          "OBJECT_ID": "2008-026A",
          "EPOCH": "2025-11-30T20:15:06.105888",
          "MEAN_MOTION": 14.1950831,
          "ECCENTRICITY": 0.0008482,
          "INCLINATION": 98.6679,
          "RA_OF_ASC_NODE": 274.6221,
          "ARG_OF_PERICENTER": 346.8209,
          "MEAN_ANOMALY": 13.2744,
          "EPHEMERIS_TYPE": 0,
          "CLASSIFICATION_TYPE": "U",
          "NORAD_CAT_ID": 32958,
          "ELEMENT_SET_NO": 999,
          "REV_AT_EPOCH": 90726,
          "BSTAR": 7.5773e-05,
          "MEAN_MOTION_DOT": 1.16e-06,
          "MEAN_MOTION_DDOT": 0
        }
      },
      "geometry": {
        "type": "Point",
        "coordinates": [
          NaN,
          NaN
        ]
      }
    },
    {
      "type": "Feature",
      "properties": {
        "norad_id": 35491,
        "name": "GOES 14",
        "group": "weather",
        "lat": NaN,
        "lon": NaN,
        "alt_km": NaN,
        "timestamp": "2025-12-01T02:46:55.349013+00:00",
        "meta": {
          "OBJECT_NAME": "GOES 14",
          "OBJECT_ID": "2009-033A",
          "EPOCH": "2025-11-30T15:02:22.655040",
          "MEAN_MOTION": 1.00272724,
          "ECCENTRICITY": 0.000407,
          "INCLINATION": 1.1649,
          "RA_OF_ASC_NODE": 85.552,
          "ARG_OF_PERICENTER": 147.8261,
          "MEAN_ANOMALY": 313.6246,
          "EPHEMERIS_TYPE": 0,
          "CLASSIFICATION_TYPE": "U",
          "NORAD_CAT_ID": 35491,
          "ELEMENT_SET_NO": 999,
          "REV_AT_EPOCH": 460,
          "BSTAR": 0,
          "MEAN_MOTION_DOT": -4.6e-07,
          "MEAN_MOTION_DDOT": 0
        }
      },
      "geometry": {
        "type": "Point",
        "coordinates": [
          NaN,
          NaN
        ]
      }
    },
    {
      "type": "Feature",
      "properties": {
        "norad_id": 35951,
        "name": "DMSP 5D-3 F18 (USA 210)",
        "group": "weather",
        "lat": NaN,
        "lon": NaN,
        "alt_km": NaN,
        "timestamp": "2025-12-01T02:46:55.349032+00:00",
        "meta": {
          "OBJECT_NAME": "DMSP 5D-3 F18 (USA 210)",
          "OBJECT_ID": "2009-057A",
          "EPOCH": "2025-11-30T20:16:12.842112",
          "MEAN_MOTION": 14.14757952,
          "ECCENTRICITY": 0.0012092,
          "INCLINATION": 98.8821,
          "RA_OF_ASC_NODE": 311.3057,
          "ARG_OF_PERICENTER": 93.6557,
          "MEAN_ANOMALY": 266.5999,
          "EPHEMERIS_TYPE": 0,
          "CLASSIFICATION_TYPE": "U",
          "NORAD_CAT_ID": 35951,
          "ELEMENT_SET_NO": 999,
          "REV_AT_EPOCH": 83154,
          "BSTAR": 0.00016346,
          "MEAN_MOTION_DOT": 2.71e-06,
          "MEAN_MOTION_DDOT": 0
        }
      },
      "geometry": {
        "type": "Point",
        "coordinates": [
          NaN,
          NaN
        ]
      }
    },
    {
      "type": "Feature",
      "properties": {
        "norad_id": 36411,
        "name": "EWS-G2 (GOES 15)",
        "group": "weather",
        "lat": NaN,
        "lon": NaN,
        "alt_km": NaN,
        "timestamp": "2025-12-01T02:46:55.349052+00:00",
        "meta": {
          "OBJECT_NAME": "EWS-G2 (GOES 15)",
          "OBJECT_ID": "2010-008A",
          "EPOCH": "2025-11-30T19:16:24.305376",
          "MEAN_MOTION": 1.00267656,
          "ECCENTRICITY": 0.0005829,
          "INCLINATION": 0.7815,
          "RA_OF_ASC_NODE": 86.0325,
          "ARG_OF_PERICENTER": 168.5694,
          "MEAN_ANOMALY": 165.9701,
          "EPHEMERIS_TYPE": 0,
          "CLASSIFICATION_TYPE": "U",
          "NORAD_CAT_ID": 36411,
          "ELEMENT_SET_NO": 999,
          "REV_AT_EPOCH": 5764,
          "BSTAR": 0,
          "MEAN_MOTION_DOT": 5.9e-07,
          "MEAN_MOTION_DDOT": 0
        }
      },
      "geometry": {
        "type": "Point",
        "coordinates": [
          NaN,
          NaN
        ]
      }
    },
    {
      "type": "Feature",
      "properties": {
        "norad_id": 36744,
        "name": "COMS 1",
        "group": "weather",
        "lat": NaN,
        "lon": NaN,
        "alt_km": NaN,
        "timestamp": "2025-12-01T02:46:55.349072+00:00",
        "meta": {
          "OBJECT_NAME": "COMS 1",
          "OBJECT_ID": "2010-032A",
          "EPOCH": "2025-11-30T20:06:51.517728",
          "MEAN_MOTION": 1.00270896,
          "ECCENTRICITY": 9.69e-05,
          "INCLINATION": 4.3102,
          "RA_OF_ASC_NODE": 78.1294,
          "ARG_OF_PERICENTER": 175.9235,
          "MEAN_ANOMALY": 245.8063,
          "EPHEMERIS_TYPE": 0,
          "CLASSIFICATION_TYPE": "U",
          "NORAD_CAT_ID": 36744,
          "ELEMENT_SET_NO": 999,
          "REV_AT_EPOCH": 4910,
          "BSTAR": 0,
          "MEAN_MOTION_DOT": -3.22e-06,
          "MEAN_MOTION_DDOT": 0
        }
      },
      "geometry": {
        "type": "Point",
        "coordinates": [
          NaN,
          NaN
        ]
      }
    }
  ]
}