DMSP 5D-3 F16 (USA 172) 
1 28054U 03048A   25334.83789903  .00000144  00000+0  99176-4 0  9992
2 28054  99.0056 352.2008 0007007 356.8098 176.1378 14.14417219141444
METEOSAT-9 (MSG-2)      
1 28912U 05049B   25334.79993905  .00000143  00000+0  00000+0 0  9994
2 28912   8.9104  56.0832 0003917 183.6616 163.7686  1.00270478  5002
DMSP 5D-3 F17 (USA 191) 
1 29522U 06050A   25334.81974566  .00000193  00000+0  12247-3 0  9995
2 29522  98.7396 340.4569 0009123 262.0906  97.9232 14.14911278984365
FENGYUN 3A              
1 32958U 08026A   25334.84382067  .00000116  00000+0  75773-4 0  9998
2 32958  98.6679 274.6221 0008482 346.8209  13.2744 14.19508310907269
GOES 14                 
1 35491U 09033A   25334.62665110 -.00000046  00000+0  00000+0 0  9990
2 35491   1.1649  85.5520 0004070 147.8261 313.6246  1.00272724  4600
DMSP 5D-3 F18 (USA 210) 
1 35951U 09057A   25334.84459308  .00000271  00000+0  16346-3 0  9994
2 35951  98.8821 311.3057 0012092  93.6557 266.5999 14.14757952831542
EWS-G2 (GOES 15)        
1 36411U 10008A   25334.80305909  .00000059  00000+0  00000+0 0  9997
2 36411   0.7815  86.0325 0005829 168.5694 165.9701  1.00267656 57649
COMS 1                  
1 36744U 10032A   25334.83809627 -.00000322  00000+0  00000+0 0  9996
2 36744   4.3102  78.1294 0000969 175.9235 245.8063  1.00270896 49108
